{"fetched_at":"2026-07-18T17:30:19.488Z","source":"https://celestrak.org/NORAD/elements/gp.php?NAME=SPOT&FORMAT=JSON","constellation":"spot","records":[{"OBJECT_NAME":"SPOT 6","OBJECT_ID":"2012-047A","EPOCH":"2026-07-18T06:35:31.473312","CLASSIFICATION_TYPE":"U","MEAN_MOTION":14.58539458,"ECCENTRICITY":0.000111,"INCLINATION":98.2104,"RA_OF_ASC_NODE":266.2173,"ARG_OF_PERICENTER":91.8214,"MEAN_ANOMALY":268.3112,"EPHEMERIS_TYPE":0,"NORAD_CAT_ID":38755,"ELEMENT_SET_NO":999,"REV_AT_EPOCH":73758,"BSTAR":0.000011597556,"MEAN_MOTION_DOT":8e-8,"MEAN_MOTION_DDOT":0},{"OBJECT_NAME":"SPOT 7","OBJECT_ID":"2014-034A","EPOCH":"2026-07-18T06:36:27.654912","CLASSIFICATION_TYPE":"U","MEAN_MOTION":14.60982077,"ECCENTRICITY":0.00016039,"INCLINATION":98.061,"RA_OF_ASC_NODE":260.9637,"ARG_OF_PERICENTER":95.4579,"MEAN_ANOMALY":264.6805,"EPHEMERIS_TYPE":0,"NORAD_CAT_ID":40053,"ELEMENT_SET_NO":999,"REV_AT_EPOCH":64167,"BSTAR":0.000016837453,"MEAN_MOTION_DOT":3.7e-7,"MEAN_MOTION_DDOT":0}]}
