SPOT 6                  
1 38755U 12047A   26199.27466983  .00000008  00000+0  11598-4 0  9999
2 38755  98.2104 266.2173 0001110  91.8214 268.3112 14.58539458737584
SPOT 7                  
1 40053U 14034A   26199.27532008  .00000037  00000+0  16837-4 0  9996
2 40053  98.0610 260.9637 0001603  95.4579 264.6805 14.60982077641679
